{
    "links": {
        "self": "http://www.neowsapp.com/rest/v1/neo/54016475?api_key=iIulBulltgU6a56xZRHN4H3l9WmuAYTsLGpBGhQ2"
    },
    "id": "54016475",
    "neo_reference_id": "54016475",
    "name": "(2020 GQ1)",
    "designation": "2020 GQ1",
    "nasa_jpl_url": "http://ssd.jpl.nasa.gov/sbdb.cgi?sstr=54016475",
    "absolute_magnitude_h": 26.782,
    "estimated_diameter": {
        "kilometers": {
            "estimated_diameter_min": 0.011699168,
            "estimated_diameter_max": 0.0261601349
        },
        "meters": {
            "estimated_diameter_min": 11.6991679763,
            "estimated_diameter_max": 26.1601348753
        },
        "miles": {
            "estimated_diameter_min": 0.0072695237,
            "estimated_diameter_max": 0.0162551492
        },
        "feet": {
            "estimated_diameter_min": 38.3830982635,
            "estimated_diameter_max": 85.8272169043
        }
    },
    "is_potentially_hazardous_asteroid": false,
    "close_approach_data": [
        {
            "close_approach_date": "2020-04-07",
            "close_approach_date_full": "2020-Apr-07 09:43",
            "epoch_date_close_approach": 1586252580000,
            "relative_velocity": {
                "kilometers_per_second": "16.8707553414",
                "kilometers_per_hour": "60734.7192289504",
                "miles_per_hour": "37738.192623122"
            },
            "miss_distance": {
                "astronomical": "0.0112249325",
                "lunar": "4.3664987425",
                "kilometers": "1679225.992893775",
                "miles": "1043422.647833095"
            },
            "orbiting_body": "Earth"
        }
    ],
    "orbital_data": {
        "orbit_id": "1",
        "orbit_determination_date": "2020-04-05 08:12:10",
        "first_observation_date": "2020-04-03",
        "last_observation_date": "2020-04-05",
        "data_arc_in_days": 2,
        "observations_used": 19,
        "orbit_uncertainty": "8",
        "minimum_orbit_intersection": ".00462432",
        "jupiter_tisserand_invariant": "3.337",
        "epoch_osculation": "2458943.5",
        "eccentricity": ".6518941034272061",
        "semi_major_axis": "2.21674023882505",
        "inclination": ".3094198465658107",
        "ascending_node_longitude": "272.0439763530938",
        "orbital_period": "1205.509491256852",
        "perihelion_distance": ".7716603483051833",
        "perihelion_argument": "351.7516504164089",
        "aphelion_distance": "3.661820129344917",
        "perihelion_time": "2458989.118691033579",
        "mean_anomaly": "346.3769394673399",
        "mean_motion": ".2986289221370358",
        "equinox": "J2000",
        "orbit_class": {
            "orbit_class_type": "APO",
            "orbit_class_description": "Near-Earth asteroid orbits which cross the Earth’s orbit similar to that of 1862 Apollo",
            "orbit_class_range": "a (semi-major axis) > 1.0 AU; q (perihelion) < 1.017 AU"
        }
    },
    "is_sentry_object": false
}